ONEWEB-0098             
1 45442U 20020U   24145.60926860  .00002725  00000+0  76526-2 0  9999
2 45442  87.8972 170.9910 0002109  90.5589 269.5780 13.11402590203870
ONEWEB-0055             
1 45443U 20020V   24145.59486877  .00000612  00000+0  16898-2 0  9996
2 45443  87.8970 170.9968 0002186  92.8018 267.3360 13.11415547203842
ONEWEB-0093             
1 45444U 20020W   24145.57025743  .00002929  00000+0  82291-2 0  9999
2 45444  87.8958 170.9839 0001987 104.0656 256.0693 13.11399671203908
ONEWEB-0029             
1 45445U 20020X   24145.58891201  .00000087  00000+0  21048-3 0  9998
2 45445  87.8968 170.9925 0001811  92.6832 267.4503 13.11431314203884
ONEWEB-0068             
1 45446U 20020Y   24145.56433455  .00002104  00000+0  59013-2 0  9994
2 45446  87.8976 170.9828 0002122  99.9972 260.1395 13.11403836203828
ONEWEB-0046             
1 45447U 20020Z   24145.56177938  .00001129  00000+0  31489-2 0  9999
2 45447  87.8969 170.9957 0001766  93.6889 266.4440 13.11405568203830
ONEWEB-0063             
1 45448U 20020AA  24145.59063360  .00000519  00000+0  14285-2 0  9993
2 45448  87.8971 170.9912 0001748  87.1710 272.9618 13.11416053203926
ONEWEB-0019             
1 45449U 20020AB  24145.56518125  .00002626  00000+0  73734-2 0  9990
2 45449  87.8970 170.9980 0002116  84.2479 275.8890 13.11400756203760
